[{"OBJECT_NAME":"GLOBAL-34","OBJECT_ID":"2026-043A","EPOCH":"2026-03-28T17:04:12.163296","MEAN_MOTION":15.31861225,"ECCENTRICITY":0.0003784,"INCLINATION":42.0227,"RA_OF_ASC_NODE":325.6837,"ARG_OF_PERICENTER":55.7845,"MEAN_ANOMALY":304.335,"EPHEMERIS_TYPE":0,"CLASSIFICATION_TYPE":"U","NORAD_CAT_ID":68098,"ELEMENT_SET_NO":999,"REV_AT_EPOCH":348,"BSTAR":0.00044696,"MEAN_MOTION_DOT":0.00013823,"MEAN_MOTION_DDOT":0},{"OBJECT_NAME":"STARLINK-37022","OBJECT_ID":"2026-044A","EPOCH":"2026-03-28T20:04:29.300736","MEAN_MOTION":15.7405975,"ECCENTRICITY":0.0001852,"INCLINATION":97.2837,"RA_OF_ASC_NODE":48.9124,"ARG_OF_PERICENTER":143.7975,"MEAN_ANOMALY":216.3415,"EPHEMERIS_TYPE":0,"CLASSIFICATION_TYPE":"U","NORAD_CAT_ID":68101,"ELEMENT_SET_NO":999,"REV_AT_EPOCH":449,"BSTAR":-0.0038515,"MEAN_MOTION_DOT":-0.00515529,"MEAN_MOTION_DDOT":0},{"OBJECT_NAME":"STARLINK-37046","OBJECT_ID":"2026-044B","EPOCH":"2026-03-28T20:02:47.499936","MEAN_MOTION":15.74550249,"ECCENTRICITY":0.0001107,"INCLINATION":97.2837,"RA_OF_ASC_NODE":48.9145,"ARG_OF_PERICENTER":137.2615,"MEAN_ANOMALY":222.8736,"EPHEMERIS_TYPE":0,"CLASSIFICATION_TYPE":"U","NORAD_CAT_ID":68102,"ELEMENT_SET_NO":999,"REV_AT_EPOCH":449,"BSTAR":-0.0031892,"MEAN_MOTION_DOT":-0.00439785,"MEAN_MOTION_DDOT":0},{"OBJECT_NAME":"STARLINK-37018","OBJECT_ID":"2026-044C","EPOCH":"2026-03-28T20:00:42.598368","MEAN_MOTION":15.74707051,"ECCENTRICITY":0.0001399,"INCLINATION":97.2839,"RA_OF_ASC_NODE":48.9166,"ARG_OF_PERICENTER":135.7977,"MEAN_ANOMALY":224.34,"EPHEMERIS_TYPE":0,"CLASSIFICATION_TYPE":"U","NORAD_CAT_ID":68103,"ELEMENT_SET_NO":999,"REV_AT_EPOCH":449,"BSTAR":-0.0030299,"MEAN_MOTION_DOT":-0.00421578,"MEAN_MOTION_DDOT":0},{"OBJECT_NAME":"STARLINK-37041","OBJECT_ID":"2026-044D","EPOCH":"2026-03-28T19:59:05.471808","MEAN_MOTION":15.75252833,"ECCENTRICITY":0.0001463,"INCLINATION":97.2841,"RA_OF_ASC_NODE":48.9177,"ARG_OF_PERICENTER":113.3,"MEAN_ANOMALY":246.8419,"EPHEMERIS_TYPE":0,"CLASSIFICATION_TYPE":"U","NORAD_CAT_ID":68104,"ELEMENT_SET_NO":999,"REV_AT_EPOCH":449,"BSTAR":0.0014053,"MEAN_MOTION_DOT":0.00215443,"MEAN_MOTION_DDOT":0},{"OBJECT_NAME":"STARLINK-37021","OBJECT_ID":"2026-044E","EPOCH":"2026-03-28T19:57:27.933120","MEAN_MOTION":15.73801773,"ECCENTRICITY":0.0002038,"INCLINATION":97.2842,"RA_OF_ASC_NODE":48.919,"ARG_OF_PERICENTER":143.2581,"MEAN_ANOMALY":216.8823,"EPHEMERIS_TYPE":0,"CLASSIFICATION_TYPE":"U","NORAD_CAT_ID":68105,"ELEMENT_SET_NO":999,"REV_AT_EPOCH":449,"BSTAR":-0.0040909,"MEAN_MOTION_DOT":-0.00540025,"MEAN_MOTION_DDOT":0},{"OBJECT_NAME":"STARLINK-37024","OBJECT_ID":"2026-044F","EPOCH":"2026-03-28T19:55:31.974816","MEAN_MOTION":15.75299761,"ECCENTRICITY":0.0001677,"INCLINATION":97.284,"RA_OF_ASC_NODE":48.9206,"ARG_OF_PERICENTER":112.1805,"MEAN_ANOMALY":247.9638,"EPHEMERIS_TYPE":0,"CLASSIFICATION_TYPE":"U","NORAD_CAT_ID":68106,"ELEMENT_SET_NO":999,"REV_AT_EPOCH":449,"BSTAR":0.0021101,"MEAN_MOTION_DOT":0.00328585,"MEAN_MOTION_DDOT":0},{"OBJECT_NAME":"STARLINK-37005","OBJECT_ID":"2026-044G","EPOCH":"2026-03-28T19:59:39.058080","MEAN_MOTION":15.74932695,"ECCENTRICITY":0.0001916,"INCLINATION":97.2841,"RA_OF_ASC_NODE":48.9172,"ARG_OF_PERICENTER":119.0839,"MEAN_ANOMALY":241.0618,"EPHEMERIS_TYPE":0,"CLASSIFICATION_TYPE":"U","NORAD_CAT_ID":68107,"ELEMENT_SET_NO":999,"REV_AT_EPOCH":449,"BSTAR":-0.0014688,"MEAN_MOTION_DOT":-0.00211533,"MEAN_MOTION_DDOT":0},{"OBJECT_NAME":"STARLINK-37017","OBJECT_ID":"2026-044H","EPOCH":"2026-03-28T19:55:01.626816","MEAN_MOTION":15.75238549,"ECCENTRICITY":0.0001473,"INCLINATION":97.2841,"RA_OF_ASC_NODE":48.9218,"ARG_OF_PERICENTER":108.6323,"MEAN_ANOMALY":251.5102,"EPHEMERIS_TYPE":0,"CLASSIFICATION_TYPE":"U","NORAD_CAT_ID":68108,"ELEMENT_SET_NO":999,"REV_AT_EPOCH":449,"BSTAR":0.0011972,"MEAN_MOTION_DOT":0.00182696,"MEAN_MOTION_DDOT":0},{"OBJECT_NAME":"STARLINK-36833","OBJECT_ID":"2026-044J","EPOCH":"2026-03-28T19:52:59.771712","MEAN_MOTION":15.75227375,"ECCENTRICITY":0.0001248,"INCLINATION":97.2846,"RA_OF_ASC_NODE":48.9226,"ARG_OF_PERICENTER":107.9313,"MEAN_ANOMALY":252.2088,"EPHEMERIS_TYPE":0,"CLASSIFICATION_TYPE":"U","NORAD_CAT_ID":68109,"ELEMENT_SET_NO":999,"REV_AT_EPOCH":449,"BSTAR":0.0010854,"MEAN_MOTION_DOT":0.00165203,"MEAN_MOTION_DDOT":0},{"OBJECT_NAME":"STARLINK-36830","OBJECT_ID":"2026-044K","EPOCH":"2026-03-28T19:54:00.332928","MEAN_MOTION":15.75265076,"ECCENTRICITY":0.0001673,"INCLINATION":97.2846,"RA_OF_ASC_NODE":48.922,"ARG_OF_PERICENTER":119.5751,"MEAN_ANOMALY":240.5682,"EPHEMERIS_TYPE":0,"CLASSIFICATION_TYPE":"U","NORAD_CAT_ID":68110,"ELEMENT_SET_NO":999,"REV_AT_EPOCH":449,"BSTAR":0.0013102,"MEAN_MOTION_DOT":0.00200608,"MEAN_MOTION_DDOT":0},{"OBJECT_NAME":"STARLINK-36791","OBJECT_ID":"2026-044L","EPOCH":"2026-03-28T21:22:26.663232","MEAN_MOTION":15.75191897,"ECCENTRICITY":0.0001387,"INCLINATION":97.2846,"RA_OF_ASC_NODE":48.992,"ARG_OF_PERICENTER":97.2515,"MEAN_ANOMALY":262.8908,"EPHEMERIS_TYPE":0,"CLASSIFICATION_TYPE":"U","NORAD_CAT_ID":68111,"ELEMENT_SET_NO":999,"REV_AT_EPOCH":450,"BSTAR":0.00048393,"MEAN_MOTION_DOT":0.00072674,"MEAN_MOTION_DDOT":0},{"OBJECT_NAME":"STARLINK-36893","OBJECT_ID":"2026-044M","EPOCH":"2026-03-28T19:49:25.886784","MEAN_MOTION":15.75235164,"ECCENTRICITY":0.0001544,"INCLINATION":97.2848,"RA_OF_ASC_NODE":48.9256,"ARG_OF_PERICENTER":105.1586,"MEAN_ANOMALY":254.985,"EPHEMERIS_TYPE":0,"CLASSIFICATION_TYPE":"U","NORAD_CAT_ID":68112,"ELEMENT_SET_NO":999,"REV_AT_EPOCH":449,"BSTAR":0.00070153,"MEAN_MOTION_DOT":0.00106024,"MEAN_MOTION_DDOT":0},{"OBJECT_NAME":"STARLINK-36937","OBJECT_ID":"2026-044N","EPOCH":"2026-03-28T19:47:54.791808","MEAN_MOTION":15.75270235,"ECCENTRICITY":9.93e-5,"INCLINATION":97.2846,"RA_OF_ASC_NODE":48.9273,"ARG_OF_PERICENTER":100.9212,"MEAN_ANOMALY":259.2165,"EPHEMERIS_TYPE":0,"CLASSIFICATION_TYPE":"U","NORAD_CAT_ID":68113,"ELEMENT_SET_NO":999,"REV_AT_EPOCH":449,"BSTAR":0.001949,"MEAN_MOTION_DOT":0.0030215,"MEAN_MOTION_DDOT":0},{"OBJECT_NAME":"STARLINK-36229","OBJECT_ID":"2026-044P","EPOCH":"2026-03-28T19:48:25.072416","MEAN_MOTION":15.75224261,"ECCENTRICITY":0.00014,"INCLINATION":97.2851,"RA_OF_ASC_NODE":48.926,"ARG_OF_PERICENTER":107.0661,"MEAN_ANOMALY":253.0758,"EPHEMERIS_TYPE":0,"CLASSIFICATION_TYPE":"U","NORAD_CAT_ID":68114,"ELEMENT_SET_NO":999,"REV_AT_EPOCH":449,"BSTAR":0.00075535,"MEAN_MOTION_DOT":0.00114223,"MEAN_MOTION_DDOT":0},{"OBJECT_NAME":"STARLINK-36392","OBJECT_ID":"2026-044Q","EPOCH":"2026-03-28T21:17:57.195456","MEAN_MOTION":15.74701445,"ECCENTRICITY":0.0001202,"INCLINATION":97.2849,"RA_OF_ASC_NODE":48.9952,"ARG_OF_PERICENTER":44.9797,"MEAN_ANOMALY":315.1565,"EPHEMERIS_TYPE":0,"CLASSIFICATION_TYPE":"U","NORAD_CAT_ID":68115,"ELEMENT_SET_NO":999,"REV_AT_EPOCH":450,"BSTAR":-0.0035145,"MEAN_MOTION_DOT":-0.0048525,"MEAN_MOTION_DDOT":0},{"OBJECT_NAME":"STARLINK-36805","OBJECT_ID":"2026-044R","EPOCH":"2026-03-28T19:45:52.913376","MEAN_MOTION":15.75280696,"ECCENTRICITY":0.0001395,"INCLINATION":97.2846,"RA_OF_ASC_NODE":48.9287,"ARG_OF_PERICENTER":113.7777,"MEAN_ANOMALY":246.3634,"EPHEMERIS_TYPE":0,"CLASSIFICATION_TYPE":"U","NORAD_CAT_ID":68116,"ELEMENT_SET_NO":999,"REV_AT_EPOCH":449,"BSTAR":0.0020345,"MEAN_MOTION_DOT":0.00316078,"MEAN_MOTION_DDOT":0}]
